#dP2018  9 22  0  0  0.00000000      96 __u+U ITR00 FIT  IAC
## 2019 518400.00000000   900.00000000 58383 0.0000000000000
+   90   C01C02C03C04C05C06C07C08C09C10C11C12C13C14E01E02E03
+        E04E05E07E08E09E11E12E14E18E19E21E24E25E26E27E30G01
+        G02G03G05G06G07G08G09G10G11G12G13G14G15G16G17G18G19
+        G20G21G22G23G24G25G26G27G28G29G30G31G32J01J02J03R01
+        R02R03R04R05R07R08R09R10R11R13R14R15R16R17R18R19R20
+        R21R22R23R24R26  0  0  0  0  0  0  0  0  0  0  0  0
++        12 11 12 12 12  9  0  9  8  8  8  8  8  8  6  7  7
++         6  6  6  7  6  6  6  6  6  6  7  6  6  6  6  7  3
++         3  3  3  3  3  3  3  3  3  3  3  3  3  3  3  3  3
++         3  3  3  3  3  3  3  3  3  3  3  3  3 10 10 10  5
++         5  5  5  5  5  5  5  6  5  6  5  6  5  5  6  5  5
++         5  5  6  6  9  0  0  0  0  0  0  0  0  0  0  0  0
%c M  cc GPS ccc cccc cccc cccc cccc ccccc ccccc ccccc ccccc
%c cc cc ccc ccc cccc cccc cccc cccc ccccc ccccc ccccc ccccc
%f  0.0000000  0.000000000  0.00000000000  0.000000000000000
%f  0.0000000  0.000000000  0.00000000000  0.000000000000000
%i    0    0    0    0      0      0      0      0         0
%i    0    0    0    0      0      0      0      0         0
/* INFORMATION & ANALYSIS CENTER (IAC) OF MCC   (RAPID DATA)
/* S/V CLOCKS ARE ALIGNED TO GPS & GLONASS TIME RESPECTIVELY
/* USING THE BROADCAST EPHEMERIS                            
/* PCV:IGS14_2000 OL/AL:FES2004  NONE     YN ORB:CoN CLK:CoN
*  2018 09 22  0  0  0.00000000
PC01 -32290.942407  27073.705883    797.781779    -21.601351
PC02   4349.798546  41967.070832     22.764025     28.372006
PC03 -14755.999463  39498.191237   1015.728991   -392.330541
PC04 -39604.937058  14386.940669    443.955659     68.744758
PC05  21912.784844  36019.920978   -137.186480   -196.053126
PC06 -18079.178915  20578.474529 -31843.685583    315.719533
PC07 -20265.615522  36277.975020   5626.023440 999999.999999
PC08  -6399.014908  30458.792533  28634.027189    534.903565
PC09   -583.355041  24600.029751 -34042.486464    134.353693
PC10 -10337.583867  37232.754378  16548.464421    -92.155439
PC11 -20734.185416 -18410.971097  -2662.145260   -690.981355
PC12  -5485.380047 -19835.652662 -18745.058750    621.349942
PC13   4463.070977  38586.616202  16738.977953   -289.291301
PC14 -14257.116097 -10462.373197  21653.676835    444.645435
PE01  -5590.805732 -19376.190170 -21663.898659   -439.925217
PE02   5639.133539  19335.157570  21698.316245     28.339038
PE03  15828.120660  14256.864825 -20555.693751    -79.766677
PE04 -28847.485640  -3413.577235   5692.628674   -122.212688
PE05  -6556.900702  16810.959069 -23461.380014    189.835222
PE07  25024.352847  -9525.536020  12637.872242    -42.672117
PE08  28893.869375   3084.772846  -5673.333698   6498.051675
PE09 -24939.095802   9657.650778 -12662.943470   6669.824918
PE11 -13508.568141   9466.775310  24567.828524   5296.152949
PE12 -20948.776609 -11331.111185  17579.821922   5105.745480
PE14 -16243.210163 -21623.097419 -15491.036592   6516.006201
PE18  22238.089383  13046.406436   2419.952400   5888.955899
PE19 -13900.629897 -14775.699652  21560.386762    -12.029842
PE21   9995.647445 -27141.278577  -6321.732921   -495.809939
PE24 -19349.903420  19031.101115 -11825.075790   6480.682411
PE25  -9987.130610  27132.361712   6326.337121   2035.304552
PE26  -1404.018588 -24167.034530 -17028.024340   5450.589304
PE27  19375.703701 -18589.959076  12477.409049    626.344230
PE30  17693.006741    240.089464  23728.988910   5493.970560
PG01 -13838.530264   6606.689728  21483.152212    -90.993454
PG02  14500.368379  15736.875963 -15299.931602     -8.539622
PG03 -22525.687667  12655.716307   5965.915742    139.383986
PG05  17327.057410   4094.667759 -19889.756990     -1.725164
PG06   6332.572725  25552.948470  -3417.137001    360.371382
PG07  -7021.187382  21125.227578 -13890.035707    120.005963
PG08 -25430.906747  -4997.826768   6221.668813   -115.951022
PG09 -13278.047564  10554.995922 -20472.200857    505.159964
PG10   4190.696818 -19258.271432  17762.802268    180.393683
PG11 -17050.157932   2081.130027  19662.340664   -716.162603
PG12  23048.027382  -7843.241872  10213.063073    305.242500
PG13  23332.993053  12709.527942   -237.959635    -88.689518
PG14 -14525.660662 -17752.563517  13842.885088    -97.179673
PG15  25014.656773    125.657263   9255.920819   -345.247634
PG16 -15290.284289  -6474.296745 -20988.123690      7.894553
PG17   5285.328194  17056.465716  20095.711788    -53.022484
PG18 -15748.214304  -3800.236579  20598.195047     59.908742
PG19  14978.750709  17363.570764  12990.396945   -400.532879
PG20  11717.644915 -21762.789614   9457.668058    516.165635
PG21   2662.494835 -24000.762258 -10315.734407   -333.308810
PG22 -22177.904727   6785.892552  13151.706522   -525.900917
PG23 -21318.757463   3910.313982 -15323.810577   -210.363942
PG24  15511.048512  -1932.093375  21358.440163    -55.704262
PG25  19693.325775 -17515.799971  -2170.325601   -650.545388
PG26  -6783.053896 -14116.260656 -21443.202194    -13.175940
PG27 -23306.325017 -12258.808774  -4505.605588    342.577252
PG28  -7889.110326  19078.527614  17364.036496    745.743315
PG29  14369.060202  -8476.974062 -20691.585691    371.843050
PG30   -398.566785  26123.194085  -4218.945009     20.785264
PG31  -7096.219523 -24675.578998  -5824.132958     91.946416
PG32  -7038.023625 -17108.459945  19134.084629   -416.647246
PJ01 -32206.877000  25014.176095  -6062.875974   -337.539461
PJ02 -22114.682463  30712.102350 -14414.326923      0.032812
PJ03 -28290.999119  22805.029271  26517.750215      0.090264
PR01  -8633.071682  -9037.667865  22233.686838     32.336700
PR02 -23731.399907    473.830471   9444.080727    330.777723
PR03 -22537.719865   8795.526190  -8113.746490    143.869306
PR04  -7689.848333  11968.705598 -21162.399296    277.076688
PR05  10686.052957   8094.762105 -21688.814823     11.206804
PR07  22241.988321  -8977.159263   8662.716920    -47.653810
PR08   8388.569568 -11993.046825  20939.727078     21.204074
PR09  11644.923909   -139.864526  22719.455852     29.587718
PR10  12724.657507 -16653.802602  14591.122386     32.102555
PR11   6693.778225 -24483.342416  -2779.447898    -41.599574
PR13 -11212.959862   -251.067901 -22918.796546    -14.918003
PR14 -12768.320776  16534.531933 -14603.903558     31.221198
PR15  -8826.335998  23928.237027  -1639.884218    -16.678052
PR16   2989.689203  18454.677209  17394.166079    102.187736
PR17 -11328.718018   2997.974275  22654.689714    166.123674
PR18   1959.664500  15811.408016  19911.008087     25.037820
PR19  13961.677835  20471.981021   6069.346673    -59.765899
PR20  18228.817765  12492.885831 -12703.008963   -353.067656
PR21  11031.708170  -3272.969226 -22773.021917     -4.745760
PR22  -3881.096861 -17070.371473 -18605.741144    -63.148230
PR23 -16301.134191 -19537.431676  -1768.596616    179.706276
PR24 -18321.767033 -11314.537172  13648.942641   -171.653237
PR26  18647.006969  13109.445100 -11472.720112     48.678324
EOF
